{
  "norad_id": 63184,
  "name": "STARLINK-11617 [DTC]",
  "history": [
    {
      "epoch": "2026-03-28T17:36:34.242624",
      "apogee_km": 356.433173781008,
      "perigee_km": 355.9448004604228,
      "latitude_deg": 33.571208181064,
      "longitude_deg": -151.16195263992995,
      "semi_major_axis_km": 6734.325987120716,
      "eccentricity": 3.626e-05,
      "inclination_deg": 43.0005,
      "raan_deg": 205.344,
      "arg_perigee_deg": 308.676,
      "mean_anomaly_deg": 51.4076,
      "mean_motion_rev_day": 15.70947093
    }
  ]
}